OBJECT_NAME,OBJECT_ID,EPOCH,MEAN_MOTION,ECCENTRICITY,INCLINATION,RA_OF_ASC_NODE,ARG_OF_PERICENTER,MEAN_ANOMALY,EPHEMERIS_TYPE,CLASSIFICATION_TYPE,NORAD_CAT_ID,ELEMENT_SET_NO,REV_AT_EPOCH,BSTAR,MEAN_MOTION_DOT,MEAN_MOTION_DDOT
ONEWEB-0132,2020-100W,2026-06-27T12:10:29.555328,13.12443601,.0001761,87.8946,348.6189,93.9142,266.2188,0,U,47278,999,26593,-.13028E-2,-.456E-5,0
ONEWEB-0133,2020-100X,2026-06-27T12:34:42.494016,13.12443645,.0001669,87.8956,348.5928,94.5230,265.6089,0,U,47279,999,26609,.4515E-3,.175E-5,0
ONEWEB-0134,2020-100Y,2026-06-27T11:50:58.418016,13.12441043,.00018,87.8956,348.5958,101.4873,258.6458,0,U,47280,999,26606,-.88415E-3,-.305E-5,0
ONEWEB-0135,2020-100Z,2026-06-27T11:09:31.375008,13.12441868,.0001683,87.8943,348.6233,102.1436,257.9881,0,U,47281,999,26608,.13712E-2,.506E-5,0
ONEWEB-0136,2020-100AA,2026-06-27T11:36:20.797056,13.12441084,.0001827,87.8951,348.6018,103.3779,256.7553,0,U,47282,999,26601,.17405E-4,.19E-6,0
ONEWEB-0137,2020-100AB,2026-06-27T12:25:08.842944,13.12443779,.0001927,87.8956,348.6054,89.4754,270.6595,0,U,47283,999,26592,-.14479E-3,-.39E-6,0
ONEWEB-0138,2020-100AC,2026-06-27T11:53:25.274688,13.12441238,.0001885,87.8953,348.6148,99.9685,260.1656,0,U,47284,999,26600,-.87209E-3,-.301E-5,0
ONEWEB-0139,2020-100AD,2026-06-27T11:02:24.667008,13.12441631,.000185,87.8951,348.6083,94.2338,265.9001,0,U,47285,999,26607,.13911E-2,.513E-5,0
ONEWEB-0140,2020-100AE,2026-06-27T11:46:06.157920,13.12441009,.0001652,87.8952,348.5932,93.0718,267.0599,0,U,47286,999,26604,-.67748E-3,-.231E-5,0
ONEWEB-0141,2020-100AF,2026-06-27T11:02:00.486240,13.12442474,.0002058,87.8952,348.6043,87.3892,272.7472,0,U,47287,999,26602,.13445E-2,.496E-5,0
ONEWEB-0142,2020-100AG,2026-06-27T12:35:07.719360,13.12444334,.0002239,87.8946,348.6123,94.7956,265.3428,0,U,47288,999,26602,.3425E-3,.136E-5,0
ONEWEB-0143,2020-100AH,2026-06-27T10:59:46.120416,13.12442639,.0001847,87.8951,348.6248,91.5975,268.5365,0,U,47289,999,26599,.13354E-2,.493E-5,0
ONEWEB-0144,2020-100AJ,2026-06-27T12:08:03.547104,13.12444060,.0002056,87.8956,348.5898,101.9499,258.1860,0,U,47290,999,26592,-.13904E-2,-.487E-5,0
ONEWEB-0145,2020-100AK,2026-06-27T11:26:35.753280,13.12441111,.0001918,87.8946,348.6222,95.0868,265.0480,0,U,47291,999,26611,.76964E-3,.29E-5,0
ONEWEB-0146,2020-100AL,2026-06-27T11:21:43.331616,13.12440901,.0001534,87.8953,348.6153,85.7153,274.4150,0,U,47292,999,26602,.83049E-3,.311E-5,0
ONEWEB-0147,2020-100AM,2026-06-27T12:22:42.464064,13.12444211,.0001721,87.8954,348.5888,96.7296,263.4028,0,U,47293,999,26592,-.20921E-3,-.63E-6,0
ONEWEB-0115,2021-025A,2026-06-27T11:01:57.743040,13.13470930,.0001776,87.8968,318.1781,97.6650,262.4681,0,U,48042,999,25494,.82066E-3,.312E-5,0
ONEWEB-0152,2021-025B,2026-06-27T09:31:45.260832,13.13470667,.0001734,87.8973,318.1879,97.2969,262.8357,0,U,48043,999,25489,.13546E-3,.62E-6,0
ONEWEB-0153,2021-025C,2026-06-27T10:49:45.380352,13.13472174,.000194,87.8963,318.1792,98.7361,261.3988,0,U,48044,999,25489,.10296E-2,.389E-5,0
ONEWEB-0154,2021-025D,2026-06-27T08:55:11.375616,13.13468932,.0001714,87.8968,318.1932,102.7041,257.4279,0,U,48045,999,25484,.94906E-3,.359E-5,0
ONEWEB-0116,2021-025E,2026-06-27T09:51:16.195104,13.13472605,.000172,87.8969,318.1820,97.0057,263.1268,0,U,48046,999,25499,.17093E-2,.637E-5,0
ONEWEB-0150,2021-025F,2026-06-27T09:17:08.117664,13.13470815,.0001979,87.8972,318.1845,93.6857,266.4499,0,U,48047,999,25488,.65916E-3,.253E-5,0
ONEWEB-0107,2021-025G,2026-06-27T09:19:34.394592,13.13470329,.0002115,87.8972,318.1800,101.3035,258.8332,0,U,48048,999,25486,.571E-3,.221E-5,0
ONEWEB-0101,2021-025H,2026-06-27T10:15:39.130272,13.13458720,.0001687,87.8958,318.1859,102.0030,258.1288,0,U,48049,999,25484,.47795E-2,.1758E-4,0
ONEWEB-0113,2021-025J,2026-06-27T10:45:57.627360,13.13893271,.0001837,87.8965,318.0923,93.4852,266.6488,0,U,48050,999,25495,.77691E-3,.298E-5,0
ONEWEB-0112,2021-025K,2026-06-27T11:16:34.519008,13.13470574,.0001973,87.8973,318.1620,105.8717,254.2630,0,U,48051,999,25494,.32643E-3,.132E-5,0
ONEWEB-0156,2021-025L,2026-06-27T09:39:05.652000,13.13453801,.0001815,87.8973,318.1845,97.2313,262.9023,0,U,48052,999,25491,-.53507E-2,-.194E-4,0
ONEWEB-0161,2021-025M,2026-06-27T09:02:29.768352,13.13471317,.0002056,87.8969,318.1915,99.1686,260.9676,0,U,48053,999,25484,.10537E-2,.398E-5,0
ONEWEB-0158,2021-025N,2026-06-27T09:53:40.673184,13.13472230,.0001638,87.8972,318.1819,102.0925,258.0388,0,U,48054,999,25497,-.754E-3,-.263E-5,0
ONEWEB-0157,2021-025P,2026-06-27T10:30:16.479072,13.13471460,.0002232,87.8968,318.1823,102.9893,257.1486,0,U,48055,999,25491,.26397E-3,.109E-5,0
