ONEWEB-0132             
1 47278U 20100W   26178.50728652 -.00000456  00000+0 -13028-2 0  9992
2 47278  87.8946 348.6189 0001761  93.9142 266.2188 13.12443601265937
ONEWEB-0133             
1 47279U 20100X   26178.52410294  .00000175  00000+0  45150-3 0  9993
2 47279  87.8956 348.5928 0001669  94.5230 265.6089 13.12443645266090
ONEWEB-0134             
1 47280U 20100Y   26178.49373169 -.00000305  00000+0 -88415-3 0  9998
2 47280  87.8956 348.5958 0001800 101.4873 258.6458 13.12441043266062
ONEWEB-0135             
1 47281U 20100Z   26178.46494647  .00000506  00000+0  13712-2 0  9999
2 47281  87.8943 348.6233 0001683 102.1436 257.9881 13.12441868266087
ONEWEB-0136             
1 47282U 20100AA  26178.48357404  .00000019  00000+0  17405-4 0  9995
2 47282  87.8951 348.6018 0001827 103.3779 256.7553 13.12441084266017
ONEWEB-0137             
1 47283U 20100AB  26178.51746346 -.00000039  00000+0 -14479-3 0  9998
2 47283  87.8956 348.6054 0001927  89.4754 270.6595 13.12443779265924
ONEWEB-0138             
1 47284U 20100AC  26178.49543142 -.00000301  00000+0 -87209-3 0  9998
2 47284  87.8953 348.6148 0001885  99.9685 260.1656 13.12441238266008
ONEWEB-0139             
1 47285U 20100AD  26178.46000772  .00000513  00000+0  13911-2 0  9994
2 47285  87.8951 348.6083 0001850  94.2338 265.9001 13.12441631266071
ONEWEB-0140             
1 47286U 20100AE  26178.49034905 -.00000231  00000+0 -67748-3 0  9990
2 47286  87.8952 348.5932 0001652  93.0718 267.0599 13.12441009266045
ONEWEB-0141             
1 47287U 20100AF  26178.45972785  .00000496  00000+0  13445-2 0  9999
2 47287  87.8952 348.6043 0002058  87.3892 272.7472 13.12442474266028
ONEWEB-0142             
1 47288U 20100AG  26178.52439490  .00000136  00000+0  34250-3 0  9998
2 47288  87.8946 348.6123 0002239  94.7956 265.3428 13.12444334266021
ONEWEB-0143             
1 47289U 20100AH  26178.45817269  .00000493  00000+0  13354-2 0  9992
2 47289  87.8951 348.6248 0001847  91.5975 268.5365 13.12442639265992
ONEWEB-0144             
1 47290U 20100AJ  26178.50559661 -.00000487  00000+0 -13904-2 0  9995
2 47290  87.8956 348.5898 0002056 101.9499 258.1860 13.12444060265927
ONEWEB-0145             
1 47291U 20100AK  26178.47680270  .00000290  00000+0  76964-3 0  9999
2 47291  87.8946 348.6222 0001918  95.0868 265.0480 13.12441111266119
ONEWEB-0146             
1 47292U 20100AL  26178.47341819  .00000311  00000+0  83049-3 0  9999
2 47292  87.8953 348.6153 0001534  85.7153 274.4150 13.12440901266022
ONEWEB-0147             
1 47293U 20100AM  26178.51576926 -.00000063  00000+0 -20921-3 0  9990
2 47293  87.8954 348.5888 0001721  96.7296 263.4028 13.12444211265924
ONEWEB-0115             
1 48042U 21025A   26178.45969610  .00000312  00000+0  82066-3 0  9992
2 48042  87.8968 318.1781 0001776  97.6650 262.4681 13.13470930254943
ONEWEB-0152             
1 48043U 21025B   26178.39705163  .00000062  00000+0  13546-3 0  9996
2 48043  87.8973 318.1879 0001734  97.2969 262.8357 13.13470667254896
ONEWEB-0153             
1 48044U 21025C   26178.45121968  .00000389  00000+0  10296-2 0  9999
2 48044  87.8963 318.1792 0001940  98.7361 261.3988 13.13472174254890
ONEWEB-0154             
1 48045U 21025D   26178.37165944  .00000359  00000+0  94906-3 0  9991
2 48045  87.8968 318.1932 0001714 102.7041 257.4279 13.13468932254843
ONEWEB-0116             
1 48046U 21025E   26178.41060411  .00000637  00000+0  17093-2 0  9990
2 48046  87.8969 318.1820 0001720  97.0057 263.1268 13.13472605254991
ONEWEB-0150             
1 48047U 21025F   26178.38689951  .00000253  00000+0  65916-3 0  9995
2 48047  87.8972 318.1845 0001979  93.6857 266.4499 13.13470815254880
ONEWEB-0107             
1 48048U 21025G   26178.38859253  .00000221  00000+0  57100-3 0  9991
2 48048  87.8972 318.1800 0002115 101.3035 258.8332 13.13470329254869
ONEWEB-0101             
1 48049U 21025H   26178.42753623  .00001758  00000+0  47795-2 0  9995
2 48049  87.8958 318.1859 0001687 102.0030 258.1288 13.13458720254846
ONEWEB-0113             
1 48050U 21025J   26178.44858365  .00000298  00000+0  77691-3 0  9995
2 48050  87.8965 318.0923 0001837  93.4852 266.6488 13.13893271254951
ONEWEB-0112             
1 48051U 21025K   26178.46984397  .00000132  00000+0  32643-3 0  9998
2 48051  87.8973 318.1620 0001973 105.8717 254.2630 13.13470574254943
ONEWEB-0156             
1 48052U 21025L   26178.40214875 -.00001940  00000+0 -53507-2 0  9991
2 48052  87.8973 318.1845 0001815  97.2313 262.9023 13.13453801254917
ONEWEB-0161             
1 48053U 21025M   26178.37673343  .00000398  00000+0  10537-2 0  9997
2 48053  87.8969 318.1915 0002056  99.1686 260.9676 13.13471317254849
ONEWEB-0158             
1 48054U 21025N   26178.41227631 -.00000263  00000+0 -75400-3 0  9992
2 48054  87.8972 318.1819 0001638 102.0925 258.0388 13.13472230254979
ONEWEB-0157             
1 48055U 21025P   26178.43769073  .00000109  00000+0  26397-3 0  9994
2 48055  87.8968 318.1823 0002232 102.9893 257.1486 13.13471460254911
